0 DELTA 1 DEB
1 12535U 76077DQ  13283.17887274 -.00000057  00000-0 -29609-3 0   864
2 12535 102.3473 001.9684 0400287 012.1812 016.3747 11.66157691523362
0 DELTA 1 DEB
1 12535U 76077DQ  13286.18109200 -.00000018  00000-0  29210-3 0   879
2 12535 102.3471 004.6133 0400270 007.4011 020.2011 11.66157473523714
0 DELTA 1 DEB
1 12535U 76077DQ  13289.18305740  .00000008  00000-0  69366-3 0   884
2 12535 102.3463 007.2579 0400246 002.6352 022.9463 11.66157554524065
0 DELTA 1 DEB
1 12535U 76077DQ  13292.18665909  .00000012  00000-0  75529-3 0   898
2 12535 102.3455 009.9041 0400245 357.8423 032.5863 11.66158133524416
0 DELTA 1 DEB
1 12535U 76077DQ  13294.70407164 -.00000004  00000-0  51302-3 0   902
2 12535 102.3452 012.1217 0400242 353.8309 161.1163 11.66158407524708
